{"type": "FeatureCollection", "features": [ {"type": "Feature", "properties": {"norad_id": 33648, "name": "FENGYUN 1C DEB", "group": "fengyun-1c-debris", "lat": -58.96276377064259, "lon": 149.16404140330425, "alt_km": 836.3981839829039, "timestamp": "2025-12-11T05:00:26.595290+00:00", "meta": {"OBJECT_NAME": "FENGYUN 1C DEB", "OBJECT_ID": "1999-025DEH", "EPOCH": "2025-12-10T17:40:17.298048", "MEAN_MOTION": 14.11774019, "ECCENTRICITY": 0.00687865, "INCLINATION": 98.7194, "RA_OF_ASC_NODE": 343.4805, "ARG_OF_PERICENTER": 179.859, "MEAN_ANOMALY": 180.2613, "EPHEMERIS_TYPE": 0, "CLASSIFICATION_TYPE": "U", "NORAD_CAT_ID": 33648, "ELEMENT_SET_NO": 999, "REV_AT_EPOCH": 64348, "BSTAR": 0.00017202181, "MEAN_MOTION_DOT": 2.78e-06, "MEAN_MOTION_DDOT": 0}, "tle": {"line1": "1 33648U 99025DEH 25344.73631132  .00000278  00000+0  17202-3 0  9994", "line2": "2 33648  98.7194 343.4805 0068786 179.8590 180.2613 14.11774019643486"}}, "geometry": {"type": "Point", "coordinates": [149.16404140330425, -58.96276377064259]}}, {"type": "Feature", "properties": {"norad_id": 33650, "name": "FENGYUN 1C DEB", "group": "fengyun-1c-debris", "lat": 33.95495540433441, "lon": -23.54960465233339, "alt_km": 876.9187229487479, "timestamp": "2025-12-11T05:00:26.595300+00:00", "meta": {"OBJECT_NAME": "FENGYUN 1C DEB", "OBJECT_ID": "1999-025DEK", "EPOCH": "2025-12-10T17:57:12.641472", "MEAN_MOTION": 13.89188095, "ECCENTRICITY": 0.01498922, "INCLINATION": 98.9877, "RA_OF_ASC_NODE": 149.8884, "ARG_OF_PERICENTER": 84.4722, "MEAN_ANOMALY": 277.3512, "EPHEMERIS_TYPE": 0, "CLASSIFICATION_TYPE": "U", "NORAD_CAT_ID": 33650, "ELEMENT_SET_NO": 999, "REV_AT_EPOCH": 68781, "BSTAR": 0.001093006, "MEAN_MOTION_DOT": 1.413e-05, "MEAN_MOTION_DDOT": 0}, "tle": {"line1": "1 33650U 99025DEK 25344.74806298  .00001413  00000+0  10930-2 0  9997", "line2": "2 33650  98.9877 149.8884 0149892  84.4722 277.3512 13.89188095687818"}}, "geometry": {"type": "Point", "coordinates": [-23.54960465233339, 33.95495540433441]}}, {"type": "Feature", "properties": {"norad_id": 33651, "name": "FENGYUN 1C DEB", "group": "fengyun-1c-debris", "lat": -60.54050069783083, "lon": -164.8228782249701, "alt_km": 916.0245759126246, "timestamp": "2025-12-11T05:00:26.595310+00:00", "meta": {"OBJECT_NAME": "FENGYUN 1C DEB", "OBJECT_ID": "1999-025DEL", "EPOCH": "2025-12-09T09:36:40.963968", "MEAN_MOTION": 14.20352443, "ECCENTRICITY": 0.01178528, "INCLINATION": 98.6567, "RA_OF_ASC_NODE": 29.0543, "ARG_OF_PERICENTER": 63.5748, "MEAN_ANOMALY": 297.7466, "EPHEMERIS_TYPE": 0, "CLASSIFICATION_TYPE": "U", "NORAD_CAT_ID": 33651, "ELEMENT_SET_NO": 999, "REV_AT_EPOCH": 64224, "BSTAR": 0.00025261989, "MEAN_MOTION_DOT": 5.38e-06, "MEAN_MOTION_DDOT": 0}, "tle": {"line1": "1 33651U 99025DEL 25343.40047412  .00000538  00000+0  25262-3 0  9997", "line2": "2 33651  98.6567  29.0543 0117852  63.5748 297.7466 14.20352443642248"}}, "geometry": {"type": "Point", "coordinates": [-164.8228782249701, -60.54050069783083]}}, {"type": "Feature", "properties": {"norad_id": 33655, "name": "FENGYUN 1C DEB", "group": "fengyun-1c-debris", "lat": -50.24080535377168, "lon": -140.46532511016864, "alt_km": 603.5902120099681, "timestamp": "2025-12-11T05:00:26.595320+00:00", "meta": {"OBJECT_NAME": "FENGYUN 1C DEB", "OBJECT_ID": "1999-025DEQ", "EPOCH": "2025-12-10T10:20:18.997152", "MEAN_MOTION": 14.97569201, "ECCENTRICITY": 0.00476075, "INCLINATION": 98.8014, "RA_OF_ASC_NODE": 49.3921, "ARG_OF_PERICENTER": 6.4, "MEAN_ANOMALY": 353.7817, "EPHEMERIS_TYPE": 0, "CLASSIFICATION_TYPE": "U", "NORAD_CAT_ID": 33655, "ELEMENT_SET_NO": 999, "REV_AT_EPOCH": 96523, "BSTAR": 0.0026111082, "MEAN_MOTION_DOT": 0.00031253, "MEAN_MOTION_DDOT": 0}, "tle": {"line1": "1 33655U 99025DEQ 25344.43077543  .00031253  00000+0  26111-2 0  9994", "line2": "2 33655  98.8014  49.3921 0047607   6.4000 353.7817 14.97569201965239"}}, "geometry": {"type": "Point", "coordinates": [-140.46532511016864, -50.24080535377168]}}, {"type": "Feature", "properties": {"norad_id": 33656, "name": "FENGYUN 1C DEB", "group": "fengyun-1c-debris", "lat": 41.43917056422337, "lon": -29.34615831575999, "alt_km": 747.9369085109465, "timestamp": "2025-12-11T05:00:26.595330+00:00", "meta": {"OBJECT_NAME": "FENGYUN 1C DEB", "OBJECT_ID": "1999-025DER", "EPOCH": "2025-12-08T19:25:37.486560", "MEAN_MOTION": 14.2271982, "ECCENTRICITY": 0.00906449, "INCLINATION": 98.5783, "RA_OF_ASC_NODE": 335.9755, "ARG_OF_PERICENTER": 42.7826, "MEAN_ANOMALY": 318.0362, "EPHEMERIS_TYPE": 0, "CLASSIFICATION_TYPE": "U", "NORAD_CAT_ID": 33656, "ELEMENT_SET_NO": 999, "REV_AT_EPOCH": 62653, "BSTAR": 0.00077976866, "MEAN_MOTION_DOT": 1.78e-05, "MEAN_MOTION_DDOT": 0}, "tle": {"line1": "1 33656U 99025DER 25342.80946165  .00001780  00000+0  77977-3 0  9998", "line2": "2 33656  98.5783 335.9755 0090644  42.7826 318.0362 14.22719820626535"}}, "geometry": {"type": "Point", "coordinates": [-29.34615831575999, 41.43917056422337]}}, {"type": "Feature", "properties": {"norad_id": 33658, "name": "FENGYUN 1C DEB", "group": "fengyun-1c-debris", "lat": 76.89071285049364, "lon": 92.05639022395367, "alt_km": 1065.45792343007, "timestamp": "2025-12-11T05:00:26.595340+00:00", "meta": {"OBJECT_NAME": "FENGYUN 1C DEB", "OBJECT_ID": "1999-025DET", "EPOCH": "2025-12-10T03:55:02.596800", "MEAN_MOTION": 13.62337712, "ECCENTRICITY": 0.02836119, "INCLINATION": 99.5634, "RA_OF_ASC_NODE": 137.408, "ARG_OF_PERICENTER": 187.7936, "MEAN_ANOMALY": 171.875, "EPHEMERIS_TYPE": 0, "CLASSIFICATION_TYPE": "U", "NORAD_CAT_ID": 33658, "ELEMENT_SET_NO": 999, "REV_AT_EPOCH": 58104, "BSTAR": 0.005143475, "MEAN_MOTION_DOT": 5.177e-05, "MEAN_MOTION_DDOT": 0}, "tle": {"line1": "1 33658U 99025DET 25344.16322450  .00005177  00000+0  51435-2 0  9990", "line2": "2 33658  99.5634 137.4080 0283611 187.7936 171.8750 13.62337712581040"}}, "geometry": {"type": "Point", "coordinates": [92.05639022395367, 76.89071285049364]}}, {"type": "Feature", "properties": {"norad_id": 33660, "name": "FENGYUN 1C DEB", "group": "fengyun-1c-debris", "lat": -53.11965117751318, "lon": 64.782664402672, "alt_km": 852.4107618578819, "timestamp": "2025-12-11T05:00:26.595351+00:00", "meta": {"OBJECT_NAME": "FENGYUN 1C DEB", "OBJECT_ID": "1999-025DEV", "EPOCH": "2025-12-08T17:21:22.345056", "MEAN_MOTION": 13.91763329, "ECCENTRICITY": 0.01098533, "INCLINATION": 98.6563, "RA_OF_ASC_NODE": 254.177, "ARG_OF_PERICENTER": 257.3117, "MEAN_ANOMALY": 130.7477, "EPHEMERIS_TYPE": 0, "CLASSIFICATION_TYPE": "U", "NORAD_CAT_ID": 33660, "ELEMENT_SET_NO": 999, "REV_AT_EPOCH": 91008, "BSTAR": 0.00090111184, "MEAN_MOTION_DOT": 1.162e-05, "MEAN_MOTION_DDOT": 0}, "tle": {"line1": "1 33660U 99025DEV 25342.72317529  .00001162  00000+0  90111-3 0  9999", "line2": "2 33660  98.6563 254.1770 0109853 257.3117 130.7477 13.91763329910086"}}, "geometry": {"type": "Point", "coordinates": [64.782664402672, -53.11965117751318]}}, {"type": "Feature", "properties": {"norad_id": 33663, "name": "FENGYUN 1C DEB", "group": "fengyun-1c-debris", "lat": -70.8869144300607, "lon": 3.1230629068892446, "alt_km": 694.7920756107478, "timestamp": "2025-12-11T05:00:26.595361+00:00", "meta": {"OBJECT_NAME": "FENGYUN 1C DEB", "OBJECT_ID": "1999-025DEY", "EPOCH": "2025-12-09T10:37:30.702144", "MEAN_MOTION": 14.61681168, "ECCENTRICITY": 0.00823538, "INCLINATION": 98.8852, "RA_OF_ASC_NODE": 334.3914, "ARG_OF_PERICENTER": 23.2121, "MEAN_ANOMALY": 337.2764, "EPHEMERIS_TYPE": 0, "CLASSIFICATION_TYPE": "U", "NORAD_CAT_ID": 33663, "ELEMENT_SET_NO": 999, "REV_AT_EPOCH": 64154, "BSTAR": 0.0086324652, "MEAN_MOTION_DOT": 0.00045332, "MEAN_MOTION_DDOT": 0}, "tle": {"line1": "1 33663U 99025DEY 25343.44271646  .00045332  00000+0  86325-2 0  9999", "line2": "2 33663  98.8852 334.3914 0082353  23.2121 337.2764 14.61681168641546"}}, "geometry": {"type": "Point", "coordinates": [3.1230629068892446, -70.8869144300607]}}, {"type": "Feature", "properties": {"norad_id": 33664, "name": "FENGYUN 1C DEB", "group": "fengyun-1c-debris", "lat": 45.9829665856364, "lon": -36.86475063468526, "alt_km": 871.7557323572446, "timestamp": "2025-12-11T05:00:26.595370+00:00", "meta": {"OBJECT_NAME": "FENGYUN 1C DEB", "OBJECT_ID": "1999-025DEZ", "EPOCH": "2025-12-02T03:10:30.773568", "MEAN_MOTION": 14.03976749, "ECCENTRICITY": 0.01640632, "INCLINATION": 98.7018, "RA_OF_ASC_NODE": 125.3204, "ARG_OF_PERICENTER": 69.7897, "MEAN_ANOMALY": 292.0828, "EPHEMERIS_TYPE": 0, "CLASSIFICATION_TYPE": "U", "NORAD_CAT_ID": 33664, "ELEMENT_SET_NO": 999, "REV_AT_EPOCH": 90590, "BSTAR": 0.00053085125, "MEAN_MOTION_DOT": 9.05e-06, "MEAN_MOTION_DDOT": 0}, "tle": {"line1": "1 33664U 99025DEZ 25336.13230062  .00000905  00000+0  53085-3 0  9990", "line2": "2 33664  98.7018 125.3204 0164063  69.7897 292.0828 14.03976749905904"}}, "geometry": {"type": "Point", "coordinates": [-36.86475063468526, 45.9829665856364]}}, {"type": "Feature", "properties": {"norad_id": 33665, "name": "FENGYUN 1C DEB", "group": "fengyun-1c-debris", "lat": -66.72622667115408, "lon": -98.94697822768342, "alt_km": 1177.1291500754041, "timestamp": "2025-12-11T05:00:26.595380+00:00", "meta": {"OBJECT_NAME": "FENGYUN 1C DEB", "OBJECT_ID": "1999-025DFA", "EPOCH": "2025-12-10T14:10:39.816768", "MEAN_MOTION": 14.03622897, "ECCENTRICITY": 0.0455802, "INCLINATION": 99.0225, "RA_OF_ASC_NODE": 102.116, "ARG_OF_PERICENTER": 98.1625, "MEAN_ANOMALY": 267.149, "EPHEMERIS_TYPE": 0, "CLASSIFICATION_TYPE": "U", "NORAD_CAT_ID": 33665, "ELEMENT_SET_NO": 999, "REV_AT_EPOCH": 92561, "BSTAR": 0.0010667, "MEAN_MOTION_DOT": 4.217e-05, "MEAN_MOTION_DDOT": 0}, "tle": {"line1": "1 33665U 99025DFA 25344.59073862  .00004217  00000+0  10667-2 0  9991", "line2": "2 33665  99.0225 102.1160 0455802  98.1625 267.1490 14.03622897925612"}}, "geometry": {"type": "Point", "coordinates": [-98.94697822768342, -66.72622667115408]}}]}